iata;airport;lat;lon;letra;code_2;aeroway;road;city_district;city;municipality;state_district;state;region;postcode;country;country_code
MGRT;RETALHULEU;14.5208;-91.6972;g;METAR MGRT 122100Z 18006KT 9999 BKN022TCU 31/25 Q1012 A2988 TCU N/NE/NW VOL. SANTA MARIA Y SANTIAGUITO EN ACTIVIDAD =;Aeropuerto de Retalhuleu;11 Calle Zona 4;ASOGUA;Lotificación La Trinidad;Municipio de Retalhuleu;Retalhuleu;Guatemala;gt
SAAR;ROSARIO;-32.9033;-60.7844;g;METAR SAAR 122100Z 02009KT CAVOK 19/13 Q1014=;Aeropuerto Internacional Rosario;Jorge Newbery;Larrea y Empalme Graneros;Distrito Noroeste;Rosario;Municipio de Rosario;Gran Rosario;Departamento Rosario;Santa Fe;S2000;Argentina;ar
SABE;AEROPARQUE JORGE NEWBERY;-34.5592;-58.4156;g;METAR COR SABE 122100Z 33006KT CAVOK 18/13 Q1015=;Aeroparque Jorge Newbery;Avenida de los Ombúes;Palermo;Buenos Aires;Comuna 14;Ciudad Autónoma de Buenos Aires;C1426BTG;Argentina;ar
SACO;AMBROSIO L V TARAVELLA;-31.3236;-64.2078;g;METAR COR SACO 122100Z 01013KT CAVOK 22/03 Q1013=;36;Avenida La Voz del Interior;Córdoba;Municipio de Córdoba;Pedanía Capital;Departamento Capital;Córdoba;X5000;Argentina;ar
SADF;SAN FERNANDO;-34.4531;-58.5894;g;METAR SADF 122100Z 34004KT CAVOK 19/13 Q1015=;Aeropuerto Internacional de San Fernando;Avenida Hipólito Yrigoyen;San Fernando;Partido de San Fernando;Buenos Aires;B1644GPK;Argentina;ar
SAEZ;Aeroporto Internacional Ministro Pistarini;-34.8258;-58.5375;g;METAR COR SAEZ 122100Z 33007KT CAVOK 20/11 Q1014=;11-29;Acceso al Terminal de Exportación Particulares;Aeropuerto Internacional Ezeiza;Partido de Ezeiza;Buenos Aires;B-1802;Argentina;ar
SAME;EL PLUMERILLO;-32.8317;-68.7928;g;METAR SAME 122100Z 05003KT CAVOK 19/06 Q1011=;Aeropuerto Internacional Gobernador Francisco Gabrielli;Junín;Distrito El Plumerillo;Departamento Las Heras;Mendoza;M5539HSQ;Argentina;ar
SANT;TENIENTE BENJAMIN MATIENZO;-26.8408;-65.1047;g;METAR SANT 122100Z 24007KT 6000 NSC 21/13 Q1012=;Teniente General Benjamín Matienzo International Airport;Presidente Juan Domingo Perón;Municipio de Delfín Gallo;Departamento Cruz Alta;Tucumán;T4178;Argentina;ar
SARC;CORRIENTES;-27.4453;-58.7617;g;METAR COR SARC 122100Z 05004KT CAVOK 20/13 Q1018=;Aeropuerto Internacional Doctor Fernando Piragine Niveyro;Autovia Islas Malvinas Ruta Nacional 12;B° 250 viv. Piragine Niveyro;Corrientes;Departamento Capital;Corrientes;800;Argentina;ar
SARE;RESISTENCIA;-27.4497;-59.0561;g;METAR COR SARE 122100Z 07006KT CAVOK 20/13 Q1018=;Aeropuerto Internacional Resistencia;Pasaje Tapir;Carpincho Macho;Resistencia;Municipio de Resistencia;Departamento San Fernando;Chaco;Argentina;ar
SARF;FORMOSA;-26.2125;-58.2281;g;METAR COR SARF 122100Z 14003KT CAVOK 19/16 Q1018=;Aeropuerto Internacional de Formosa;Autopista RN11;Villa del Carmen;Formosa;Villa del Carmen;Municipio de Villa del Carmen;Departamento Formosa;Formosa;P3601;Argentina;ar
SARI;CATARATAS DEL IGUAZU;-25.7375;-54.4731;g;METAR COR SARI 122100Z 00000KT CAVOK 19/11 Q1019=;Aeropuerto Internacional Cataratas del Iguazú;Acceso Aeropuerto Iguazú;Municipio de Puerto Iguazú;Departamento Iguazú;Misiones;Argentina;ar
SARL;PASO DE LOS LIBRES;-29.6892;-57.1519;g;METAR COR SARL 122100Z 02003KT 5000 FU NSC 18/14 Q1019=;Aeropuerto Paso De Los Libres;Avenida Arturo Frondizi;B 60 viv;50 VIV G1,2,3,4;Municipio de Paso de los Libres;Departamento Paso de los Libres;Corrientes;W3230FLP;Argentina;ar
SARP;POSADAS;-27.3858;-55.9706;g;METAR COR SARP 122100Z 09002KT CAVOK 19/10 Q1020=;Aeropuerto Internacional de Posadas Libertador General José de San Martín;Avenida Ulises López;Centro de Integración Territorial Villa Cabello;Municipio de Posadas;Departamento Capital;Misiones;3300;Argentina;ar
SASA;SALTA;-24.8558;-65.4861;g;METAR COR SASA 122100Z 05008KT CAVOK 18/07 Q1017=;Aeropuerto Internacional de Salta Martín Miguel de Güemes;Clara Tránsito Juárez de Villarreal;Villa Rebeca;San Luis;Municipio de Salta;Capital;Salta;Argentina;ar
SASJ;JUJUY;-24.3928;-65.0978;g;METAR COR SASJ 122100Z 05006KT CAVOK 19/11 Q1017=;Aeropuerto Internacional Gobernador Horacio Guzmán;Manuel Dorrego;Eva Perón;Perico;Municipio de Perico;Departamento El Carmen;Jujuy;Y4610;Argentina;ar
SAVC;COMODORO RIVADAVIA;-45.785;-67.4656;g;METAR COR SAVC 122100Z 27015KT CAVOK 11/M01 Q1007=;Aeropuerto Internacional General Enrique Mosconi;Avenida 8 Diciembre;40 Viviendas;Standard Norte;Standard Norte;Municipio de Comodoro Rivadavia;Departamento Escalante;Chubut;9005;Argentina;ar
SAWE;RIO GRANDE;-53.7775;-67.7492;g;METAR SAWE 122100Z 25014KT CAVOK 04/02 Q0991=;08/25;Base Marambio;Chacra IV;Río Grande;Departamento Río Grande;Tierra del Fuego;9420;Argentina;ar
SAWG;RIO GALLEGOS;-51.6086;-69.3125;g;METAR SAWG 122100Z 27017KT CAVOK 04/M00 Q0998=;Hangar;Acceso Directo;Municipio de Río Gallegos;Güer Aike;Santa Cruz;Z9400;Argentina;ar
SAWH;USHUAIA MALVINAS ARGENTINAS;-54.8431;-68.2956;g;METAR SAWH 122100Z 27010KT 9999 SCT035 05/01 Q0990=;Ushuaia;Municipio de Ushuaia;Departamento Ushuaia;Tierra del Fuego;Argentina;ar
SAZM;MAR DEL PLATA;-37.9342;-57.5733;g;METAR SAZM 122100Z 32010KT CAVOK 16/12 Q1010=;Aeropuerto Internacional Astor Piazolla;Vicente A. Almonacid;La Florida;Mar del Plata;Partido de General Pueyrredón;Buenos Aires;7600;Argentina;ar
SAZN;PRESIDENTE PERON;-38.9489;-68.1556;g;METAR COR SAZN 122100Z 25005G15KT CAVOK 24/09 Q1008=;Aeropuerto Internacional Presidente Juan Domingo Perón;Barbado;Valentina Norte Urbana;Neuquén;Municipio de Neuquén;Departamento Confluencia;Neuquén;Q8304ACG;Argentina;ar
SAZS;SAN CARLOS DE BARILOCHE;-41.1511;-71.1575;g;METAR COR SAZS 122100Z 31013KT 9000 VCSH FEW025 BKN042 11/07 Q1008=;Aeropuerto Internacional Teniente Luis Candelaria;Ruta Provincial 80;Municipio de San Carlos de Bariloche;Departamento Bariloche;Río Negro;Argentina;ar
SBAA;Aeroporto de Conceição do Araguaia;-8.34833;-49.3014;g;METAR SBAA 122100Z AUTO /////KT ///V/// CAVOK 30/20 Q1010=;Aeroporto de Conceição do Araguaia - Bendito Roque;PA-447;Cruzeiro;Conceição do Araguaia;Conceição do Araguaia;Microrregião de Conceição do Araguaia;Região Geográfica Intermediária de Redenção;Pará;Região Norte;Brasil;br
SBAC;Aeroporto Dragão do Mar;-4.56861;-37.8047;g;METAR SBAC 122100Z 03007KT CAVOK 27/24 Q1012=;Aeroporto de Aracati - Dragão do Mar;Rua Tales de Mileto;Aracati;Região Geográfica Imediata de Aracati;Região Geográfica Intermediária de Quixadá;Ceará;Região Nordeste;62800-000;Brasil;br
SBAE;Aeroporto Internacional Bauru-Arealva / Moussa Nak;-22.1585;-49.0735;g;METAR SBAE 122100Z 18003KT CAVOK 21/11 Q1019=;Aeroporto de Bauru-Arealva;BRW-312;Bauru;Bauru;Região Imediata de Bauru;Região Geográfica Intermediária de Bauru;São Paulo;Região Sudeste;Brasil;br
SBAF;Base Aérea dos Afonsos / BAAF;-22.875;-43.3844;g;METAR SBAF 122100Z 24007KT 9999 FEW030 21/15 Q1018=;Base Aérea dos Afonsos;Rua Marina;Bento Ribeiro;Zona Norte do Rio de Janeiro;Rio de Janeiro;Região Geográfica Imediata do Rio de Janeiro;Região Metropolitana do Rio de Janeiro;Região Geográfica Intermediária do Rio de Janeiro;Rio de Janeiro;Região Sudeste;21331-720;Brasil;br
SBAN;Base Aérea de Anápolis / BAAN;-16.2283;-48.965;g;METAR SBAN 122100Z 21005KT 9999 FEW045 SCT060 23/14 Q1019=;Base Aérea de Anápolis;Rua Sd-002;Bairro Santos Dumont;Anápolis;Região Geográfica Imediata de Anápolis;Região Geográfica Intermediária de Goiânia;Goiás;Região Centro-Oeste;75073255;Brasil;br
SBAR;Aeroporto de Santa Maria;-10.9839;-37.0703;g;METAR SBAR 122100Z 11005KT CAVOK 26/21 Q1013=;Aeroporto de Aracaju;Avenida Senador Júlio Cesár Leite;Recanto da Paz;Aeroporto;Aracaju;Aracaju;Região Geográfica Imediata de Aracaju;Região Geográfica Intermediária de Aracaju;Sergipe;Região Nordeste;49037-580;Brasil;br
SBAX;Aeroporto de Araxá;-19.5597;-46.965;g;METAR SBAX 122100Z AUTO 20003KT CAVOK 20/12 Q1019=;15/33;Via Lateral;Aeroporto;Araxá;Região Geográfica Imediata de Araxá;Região Geográfica Intermediária de Uberaba;Minas Gerais;Região Sudeste;38180-129;Brasil;br
SBBE;Aeroporto Val de Cães;-1.37917;-48.4761;g;METAR SBBE 122100Z 32002KT 9999 FEW040 BKN100 26/23 Q1010=;Aeroporto Internacional de Belém Val-de-Cans;Rua Cristal;Cristal Ville;Val-de-Cães;Entroncamento;Belém;Região Geográfica Imediata de Belém;Região Geográfica Intermediária de Belém;Pará;Região Norte;66640-250;Brasil;br
SBBG;Aeroporto Comandante Gustavo Kraemer;-31.3903;-54.1122;g;METAR SBBG 122100Z AUTO 31004KT CAVOK 15/10 Q1018=;Aeroporto Internacional Comandante Gustavo Kraemer;Estrada General Artigas;Bagé;Bagé;Região Geográfica Imediata de Bagé;Região Geográfica Intermediária de Pelotas;Rio Grande do Sul;Região Sul;96400-560;Brasil;br
SBBH;Aeroporto da Pampulha;-19.8517;-43.9503;g;METAR SBBH 122100Z 09007KT 9999 FEW040 21/14 Q1018=;Aeroporto de Belo Horizonte/Pampulha - MG - Carlos Drummond de Andrade;BRT MOVE;São Luiz;Aeroporto;Pampulha;Belo Horizonte;Região Geográfica Imediata de Belo Horizonte;Região Metropolitana de Belo Horizonte;Região Geográfica Intermediária de Belo Horizonte;Minas Gerais;Região Sudeste;31710-400;Brasil;br
SBBI;Aeroporto de Bacacheri;-25.405;-49.2319;g;METAR SBBI 122100Z 19004KT CAVOK 14/06 Q1021=;Aeroporto de Bacacheri;Rua Desembargador Manoel de Lacerda Pinto;Bacacheri;Curitiba;Região Geográfica Imediata de Curitiba;Região Metropolitana de Curitiba;Região Geográfica Intermediária de Curitiba;Paraná;Região Sul;81550-310;Brasil;br
SBBP;Aeroporto Estadual Arthur Siqueira;-22.9792;-46.5375;g;METAR SBBP 122100Z 15003KT CAVOK 17/09 Q1021=;Aeroporto Estadual Arthur Siqueira;Rua Nelson Carline;Jardim Europa;Bragança Paulista;Bragança Paulista;Região Imediata de Bragança Paulista;Região Geográfica Intermediária de Campinas;São Paulo;Região Sudeste;12916-360;Brasil;br
SBBQ;Aeroporto Major Brigadeiro Doorgal Borges;-21.2669;-43.7608;g;METAR SBBQ 122100Z 11004KT CAVOK 15/12 Q1022=;Aeroporto de Barbacena - Major-Brigadeiro Doorgal Borges;MG-135;Ponte do Cosme;Barbacena;Região Geográfica Imediata de Barbacena;Região Geográfica Intermediária das Vertentes;Minas Gerais;Região Sudeste;36205-018;Brasil;br
SBBR;Aeroporto Internacional de Brasília — Presidente Juscelino Kubitschek;-15.8625;-47.9125;g;METAR SBBR 122100Z 13005KT 9999 FEW040 SCT080 25/14 Q1018=;SHIS QI 3;Lago Sul;Região Geográfica Imediata do Distrito Federal;Região Integrada de Desenvolvimento do Distrito Federal e Entorno;Região Geográfica Intermediária do Distrito Federal;Distrito Federal;Região Centro-Oeste;71605490;Brasil;br
SBBU;Aeródromo de Bauru;-22.345;-49.0536;g;METAR SBBU 122100Z 13003KT CAVOK 21/12 Q1019=;Aeroporto de Bauru - Comandante João Ribeiro de Barros;Avenida Odilon Braga;Jardim América;Vila Aviação;Bauru;Bauru;Região Imediata de Bauru;Região Geográfica Intermediária de Bauru;São Paulo;Região Sudeste;17017-383;Brasil;br
SBBV;Aeroporto Internacional de Boa Vista - Atlas Brasil Cantanhede;2.84611;-60.69;g;METAR SBBV 122100Z 33003KT 9999 BKN040 FEW045TCU BKN070 28/23 Q1010=;3;Alameda do Soldado 03;Aeroporto;Boa Vista;Boa Vista;Microrregião de Boa Vista;Região Geográfica Intermediária de Boa Vista;Roraima;Região Norte;69310-000;Brasil;br
SBCB;Aeroporto de Cabo Frio;-22.9217;-42.0742;g;METAR SBCB 122100Z 23004KT 9999 FEW020 SCT060 21/15 Q1018=;Aeroporto Internacional de Cabo Frio;Avenida Adolfo Beranger Junior;Cabo Frio;Região Geográfica Imediata de Cabo Frio;Região Geográfica Intermediária de Macaé-Rio das Ostras-Cabo Frio;Rio de Janeiro;Região Sudeste;28905-970;Brasil;br
SBCC;Aeroporto do Cachimbo;-9.33389;-54.9653;g;METAR SBCC 122100Z 07008KT CAVOK 29/17 Q1013=;Campo de Provas Brigadeiro Velloso;Acesso à Base Aérea do Cachimbo;Novo Progresso;Novo Progresso;Microrregião de Itaituba;Região Geográfica Intermediária de Santarém;Pará;Região Norte;Brasil;br
SBCF;Aeroporto Internacional Tancredo Neves;-19.6336;-43.9686;g;METAR SBCF 122100Z 09008KT 9999 FEW040 21/14 Q1018=;Aeroporto Internacional Tancredo Neves;Rua Lurdes Leles Vieira;São José;Vila Mãe Rainha;Confins;Região Geográfica Imediata de Belo Horizonte;Região Metropolitana de Belo Horizonte;Região Geográfica Intermediária de Belo Horizonte;Minas Gerais;Região Sudeste;33500-000;Brasil;br
SBCG;Aeroporto Internacional de Campo Grande;-20.4686;-54.6725;g;METAR SBCG 122100Z 13004KT CAVOK 21/12 Q1018=;Taveirópolis;Campo Grande;Campo Grande;Microrregião de Campo Grande;Região Geográfica Intermediária de Campo Grande;Mato Grosso do Sul;Região Centro-Oeste;Brasil;br
SBCH;Aeroporto de Chapecó / Serafin Enoss Bertaso;-27.1342;-52.6564;g;METAR SBCH 122100Z 00000KT CAVOK 15/11 Q1021=;Aeroporto Municipal de Chapecó;4535;Acesso Florenal Ribeiro;Palmital dos Fundos;Distrito Sede de Chapecó;Região Geográfica Imediata de Chapecó;Região Geográfica Intermediária de Chapecó;Santa Catarina;89815-290;Brasil;br
SBCI;Aeroporto de Carolina / Aeroporto Brigadeiro Lysia;-7.32028;-47.4586;g;METAR SBCI 122100Z AUTO /////KT ///V/// CAVOK 32/20 Q1010=;Aeroporto Brigadeiro Lysias Augusto Rodrigues;Rodovia Transamazônica;Canto Grande;Carolina;Região Geográfica Imediata de Balsas;Região Geográfica Intermediária de Imperatriz;Maranhão;Região Nordeste;65980000;Brasil;br
SBCJ;Carajas;-6.11528;-50.0014;g;METAR SBCJ 122100Z 01002KT CAVOK 25/22 Q1014=;Aeroporto de Carajás;Rodovia Raimundo Mascarenhas;Bairro Primavera;Primavera;Parauapebas;Parauapebas;Região Geográfica Imediata de Parauapebas;Região Geográfica Intermediária de Marabá;Pará;Região Norte;68515-000;Brasil;br
SBCO;Base Aérea de Canoas /BACO;-29.9458;-51.1444;g;METAR SBCO 122100Z 30005KT CAVOK 15/08 Q1019=;Base Aérea de Canoas;1700;Rua Augusto Severo;Nossa Senhora das Graças;Canoas;Canoas;Região Geográfica Imediata de Porto Alegre;Região Metropolitana de Porto Alegre;Região Geográfica Intermediária de Porto Alegre;Rio Grande do Sul;Região Sul;92025-510;Brasil;br
SBCP;Aeroporto Internacional de Campos dos Goytacazes;-21.6983;-41.3017;g;METAR SBCP 122100Z 00000KT CAVOK 22/16 Q1017=;Aeroporto Bartholomeu Lysandro;Estrada do Brejo Grande;Mundeús;Campos dos Goytacazes;Região Geográfica Imediata de Campos dos Goytacazes;Região Geográfica Intermediária de Campos dos Goytacazes;Rio de Janeiro;Região Sudeste;28070515;Brasil;br
SBCR;Aeroporto Internacional de Corumbá;-19.0117;-57.6728;g;METAR SBCR 122100Z 12004KT 9999 FEW030 25/15 Q1015=;Aeroporto Internacional de Corumbá;Alameda Nossa Senhora Aparecida;Corumbá;Corumbá;Microrregião do Baixo Pantanal;Região Geográfica Intermediária de Corumbá;Mato Grosso do Sul;Região Centro-Oeste;79330-000;Brasil;br
SBCT;Aeroporto Internacional Afonso Pena;-25.5283;-49.1756;g;METAR SBCT 122100Z 20005KT CAVOK 15/05 Q1021=;Area Preservação Permanente APP;Rua Maria Isabel Zen Zagonel;Gatron;Aviação;São José dos Pinhais;Região Geográfica Imediata de Curitiba;Região Metropolitana de Curitiba;Região Geográfica Intermediária de Curitiba;Paraná;Região Sul;83045-470;Brasil;br
SBCX;Aeroporto Regional de Caxias do Sul / Hugo Canterg;-29.1969;-51.1875;g;METAR SBCX 122100Z 33002KT CAVOK 11/05 Q1019=;Aeroporto Regional de Caxias do Sul - Hugo Cantergiani;Rua José Paim Hoffman;Salgado Filho;Primeiro Distrito;Caxias do Sul;Região Geográfica Imediata de Caxias do Sul;Região Geográfica Intermediária de Caxias do Sul;Rio Grande do Sul;Região Sul;95088-338;Brasil;br
SBCY;Aeroporto Internacional Marechal Rondon;-15.6528;-56.1167;g;METAR SBCY 122100Z 15006KT 9999 SCT020 26/18 Q1014=;C3;Rua Interna;Várzea Grande;Microrregião de Cuiabá;Região Geográfica Intermediária de Cuiabá;Mato Grosso;Região Centro-Oeste;78110-970;Brasil;br
SBCZ;Aeroporto Internacional de Cruzeiro do Sul;-7.6;-72.7694;g;METAR SBCZ 122100Z 15004KT 9999 OVC020 23/21 Q1013=;Aeroporto Internacional de Cruzeiro do Sul;Estrada do Aeroporto;Cruzeiro do Sul;Cruzeiro do Sul;Região Geográfica Imediata de Cruzeiro do Sul;Região Geográfica Intermediária de Cruzeiro do Sul;Acre;Região Norte;Brasil;br
SBDB;Bonito;-21.2472222;-56.4525;g;METAR SBDB 122100Z AUTO 00000KT CAVOK 23/12 Q1017=;Aeroporto Regional de Bonito;MS-178;Bonito;Bonito;Região Geográfica Imediata de Jardim;Região Geográfica Intermediária de Corumbá;Mato Grosso do Sul;Região Centro-Oeste;Brasil;br
SBDN;Aeroporto de Presidente Prudente;-22.175;-51.4244;g;METAR SBDN 122100Z 00000KT CAVOK 21/10 Q1018=;Aeroporto Estadual de Presidente Prudente;Rodovia Júlio Budisk;Quinta das Flores;Presidente Prudente;Presidente Prudente;Região Imediata de Presidente Prudente;Região Geográfica Intermediária de Presidente Prudente;São Paulo;Região Sudeste;19055-020;Brasil;br
SBEG;Aeroporto Internacional de Manaus / Eduardo Gomes;-3.03861;-60.0497;g;METAR SBEG 122100Z 05006KT 9999 FEW025 FEW030TCU 31/23 Q1009=;Aeroporto Internacional De Manaus Eduardo Gomes;Avenida do Turismo;Tarumã;Manaus;Manaus;Região Geográfica Imediata de Manaus;Região Geográfica Intermediária de Manaus;Amazonas;Região Norte;69000-000;Brasil;br
SBES;Aeroporto Internacional de São Pedro da Aldeia;-22.8128;-42.0925;g;METAR SBES 122100Z 23003KT 210V280 9999 FEW025 SCT050 19/16 Q1018=;Sao Pedro da Aldeia;Rodovia Amaral Peixoto;São Pedro da Aldeia;Região Geográfica Imediata de Cabo Frio;Região Geográfica Intermediária de Macaé-Rio das Ostras-Cabo Frio;Rio de Janeiro;Região Sudeste;Brasil;br
SBFI;Aeroporto Internacional Cataratas;-25.5961;-54.4869;g;METAR SBFI 122100Z 23002KT CAVOK 17/13 Q1019=;Aeroporto Internacional de Foz do Iguaçu/Cataratas;Rua Jardim Alegre;Foz do Iguaçu;Região Geográfica Imediata de Foz do Iguaçu;Região Geográfica Intermediária de Cascavel;Paraná;Região Sul;85861-380;Brasil;br
SBFL;Aeroporto Internacional de Florianópolis - Hercílio Luz;-27.6725;-48.5478;g;METAR SBFL 122100Z 08004KT CAVOK 17/10 Q1019=;APRON 1;4;Carianos;Ribeirão da Ilha;Florianópolis;Região Geográfica Imediata de Florianópolis;Região Geográfica Intermediária de Florianópolis;Santa Catarina;88047-900;Brasil;br
SBFN;Aeroporto de Fernando de Noronha;-3.8547222;-32.428333;g;METAR SBFN 122100Z AUTO 15010KT 9999 SCT018 27/22 Q1013=;Aeroporto de Fernando de Noronha;Estrada do Vai Sabe;Vila da Coria;Fernando de Noronha;Região Geográfica Imediata do Recife;Pernambuco;Região Nordeste;53990-000;Brasil;br
SBFZ;Aeroporto Internacional de Fortaleza - Pinto Martins;-3.77611;-38.5325;g;METAR SBFZ 122100Z 08006KT CAVOK 28/23 Q1011=;Aeroporto Internacional de Fortaleza - Pinto Martins;3000;Avenida Senador Carlos Jereissati;Serrinha;Fortaleza;Região Geográfica Imediata de Fortaleza;Região Geográfica Intermediária de Fortaleza;Ceará;Região Nordeste;60741-900;Brasil;br
SBGL;Aeroporto Internacional do Rio de Janeiro / Galeão;-22.8089;-43.2436;g;METAR SBGL 122100Z 14006KT 9999 FEW015 SCT050 21/15 Q1018=;Galeão;Zona Norte do Rio de Janeiro;Rio de Janeiro;Região Geográfica Imediata do Rio de Janeiro;Região Metropolitana do Rio de Janeiro;Região Geográfica Intermediária do Rio de Janeiro;Rio de Janeiro;Região Sudeste;21941-480;Brasil;br
SBGO;Aeroporto Santa Genoveva Goiânia;-16.6311;-49.2222;g;METAR SBGO 122100Z 15008KT 9999 FEW045 25/16 Q1017=;Pista de Pouso Aeroporto de Goiânia - Santa Genoveva - Rwy 14/32;Avenida Caiapó;Santa Genoveva;Goiânia;Região Geográfica Imediata de Goiânia;Região Geográfica Intermediária de Goiânia;Goiás;Região Centro-Oeste;74670010;Brasil;br
SBGR;Aeroporto Internacional de São Paulo/Guarulhos – Governador André Franco Montoro;-23.4322;-46.4692;g;METAR SBGR 122100Z 16005KT 9999 SCT040 16/12 Q1021=;Companhia Contra Incêndio;Estrada Guarulhos - Nazaré;Conjunto Paes de Barros;Cumbica;Jardim Presidente Dutra;Guarulhos;Região Imediata de São Paulo;Região Metropolitana de São Paulo;Região Geográfica Intermediária de São Paulo;São Paulo;Região Sudeste;07182-310;Brasil;br
SBGW;Aeroporto de Guaratinguetá Edu Chaves;-22.7914;-45.2047;g;METAR SBGW 122100Z VRB02KT 9999 FEW025 17/11 Q1019=;Aeroporto de Guaratinguetá;Rua Geraldo de Aquino Rosas;São Dimas;Jardim Aeroporto;Guaratinguetá;Guaratinguetá;Região Imediata de Guaratinguetá;Região Metropolitana do Vale do Paraíba e Litoral Norte;Região Geográfica Intermediária de São José dos Campos;São Paulo;Região Sudeste;12513-010;Brasil;br
SBHT;Aeroporto de Altamira;-3.25389;-52.2539;g;METAR SBHT 122100Z 00000KT 9999 FEW030 SCT100 26/25 Q1011=;Aeroporto de Altamira;Avenida dos Buritis;Cidade Jardim;Altamira;Altamira;Microrregião de Altamira;Região Geográfica Intermediária de Altamira;Pará;Região Norte;Brasil;br
SBIH;Aeroporto de Itaituba;-4.24222;-56.0006;g;METAR SBIH 122100Z /////KT 9999 FEW025TCU 32/23 Q1009=;Aeroporto de Itaituba;Rodovia Transamazônica;Bairro da Paz;Itaituba;Itaituba;Microrregião de Itaituba;Região Geográfica Intermediária de Santarém;Pará;Região Norte;68184-222;Brasil;br
SBIL;Aeroporto de Ilhéus / Jorge Amado;-14.8158;-39.0331;g;METAR SBIL 122100Z 07006KT CAVOK 26/23 Q1013=;Rua Monteiro Lobato;Pontal;Ilhéus;Ilhéus;Região Geográfica Imediata de Ilhéus – Itabuna;Região Geográfica Intermediária de Ilhéus-Itabuna;Bahia;Região Nordeste;45653-135;Brasil;br
SBIP;Aeroporto Usiminas;-19.4706;-42.4875;g;METAR SBIP 122100Z AUTO 27001KT CAVOK ///// Q1017=;Aeroporto Regional do Vale do Aço;BR-458;Distrito Industrial;Santana do Paraíso;Região Geográfica Imediata de Ipatinga;Região Metropolitana do Vale do Aço;Região Geográfica Intermediária de Ipatinga;Minas Gerais;Região Sudeste;35164-455;Brasil;br
SBJA;Aeroporto Regional Sul Humberto Ghizzo Bortoluzzi;-28.675;-49.0606;g;METAR SBJA 122100Z 25001KT CAVOK 13/07 Q1020=;05/23;Rodovia Lussa Librelato;Cavoca;Jaguaruna;Região Geográfica Imediata de Tubarão;Região Geográfica Intermediária de Criciúma;Santa Catarina;88715-000;Brasil;br
SBJD;Aeroporto Estadual de Jundiaí / Comandante Rolim Adolfo Amaro;-23.1817;-46.9436;g;METAR SBJD 122100Z 16007KT 9999 FEW030 17/10 Q1020=;Aeroporto Estadual Comandante Rolim Adolfo Amaro;Avenida Emílio Antonon;Aeroporto;Jundiaí;Jundiaí;Região Imediata de Jundiaí;Região Geográfica Intermediária de Campinas;São Paulo;Região Sudeste;13212-010;Brasil;br
SBJE;O Aeroporto Regional Comandante Ariston Pessoa;-2.90667;-40.3581;g;METAR SBJE 122100Z 06003KT 9999 SCT025 BKN070 32/23 Q1012=;Aeroporto de Jericoacoara;Rodovia João Jaime Ferreira Gomes;Monteiro;Cruz;Região Geográfica Imediata de Acaraú;Região Geográfica Intermediária de Sobral;Ceará;Região Nordeste;Brasil;br
SBJI;Aeroporto de Ji-Paraná / José Coleto;-10.8703;-61.8461;g;METAR SBJI 122100Z 09002KT 9999 FEW025 SCT100 29/21 Q1013=;Aeroporto de Ji-Paraná - José Coleto;Avenida Brasil;Ji-Paraná;Ji-Paraná;Microrregião Ji-Paraná;Região Geográfica Intermediária de Ji-Paraná;Rondônia;Região Norte;Brasil;br
SBJP;Aeroporto Internacional Presidente Castro Pinto;-7.14622;-34.9514;g;METAR SBJP 122100Z 12010KT CAVOK 25/21 Q1012=;Aeroporto Internacional de João Pessoa - Presidente Castro Pinto;Jardim Aeroporto;Bayeux;Bayeux;Região Geográfica Imediata de João Pessoa;Região Metropolitana de João Pessoa;Região Geográfica Intermediária de João Pessoa;Paraíba;Região Nordeste;58302510;Brasil;br
SBJR;Aeroporto de Jacarepaguá;-22.9867;-43.3719;g;SPECI SBJR 122115Z 24002KT 9999 FEW020 17/15 Q1018=;Aeroporto de Jacarepaguá - Roberto Marinho;2541;Avenida Ayrton Senna;Barra da Tijuca;Zona Oeste do Rio de Janeiro;Rio de Janeiro;Região Geográfica Imediata do Rio de Janeiro;Região Metropolitana do Rio de Janeiro;Região Geográfica Intermediária do Rio de Janeiro;Rio de Janeiro;Região Sudeste;22775-002;Brasil;br
SBJU;Aeroporto de Juazeiro do Norte/Orlando Bezerra de Menezes;-7.21833;-39.2717;g;METAR SBJU 122100Z 20004KT CAVOK 30/14 Q1014=;13/31;Rua José Teodoro do Nascimento;Betolândia;Juazeiro do Norte;Região Geográfica Imediata de Juazeiro do Norte;Região Geográfica Intermediária de Juazeiro do Norte;Ceará;Região Nordeste;63038135;Brasil;br
SBJV;Aeroporto de Joinville- Lauro Carneiro de Loyola;-26.2247;-48.7972;g;METAR SBJV 122100Z 13005KT CAVOK 15/12 Q1020=;Aeroporto de Joinville Lauro Carneiro de Loyola;9000;Avenida Santos Dumont;Joinville;Região Geográfica Imediata de Joinville;Região Geográfica Intermediária de Joinville;Santa Catarina;89226-435;Brasil;br
SBKG;Aeroporto de Campina Grande/Aeroporto Presidente João Suassuna;-7.26998;-35.8972;g;METAR SBKG 122100Z 10008KT CAVOK 26/17 Q1014=;Aeroporto de Campina Grande - Presidente João Suassuna;Rua Rogerio Toledo;Velame;Campina Grande;Campina Grande;Região Geográfica Imediata de Campina Grande;Região Metropolitana de Campina Grande;Região Geográfica Intermediária de Campina Grande;Paraíba;Região Nordeste;58414-500;Brasil;br
SBKP;Aeroporto Internacional de Viracopos / Campinas;-23.0081;-47.1344;g;METAR SBKP 122100Z 18004KT CAVOK 20/10 Q1019=;Campinas;Campinas;Região Imediata de Campinas;Região Metropolitana de Campinas;Região Geográfica Intermediária de Campinas;São Paulo;Região Sudeste;13054-709;Brasil;br
SBLE;Aeroporto Horácio de Mattos;-12.4833;-41.2731;g;METAR SBLE 122100Z AUTO VRB02KT CAVOK 23/19 Q1014=;Aeroporto de Lençóis - Horácio de Matos;Acesso a CIPPA/Lençóis;Coronel Octaviano Alves;Lençóis;Região Geográfica Imediata de Seabra;Região Geográfica Intermediária de Feira de Santana;Bahia;Região Nordeste;Brasil;br
SBLO;Aeroporto de Londrina / Governador José Richa;-23.3336;-51.13;g;METAR SBLO 122100Z 07002KT CAVOK 20/11 Q1020=;Aeroporto Governador José Richa;Rua Pero Vaz de Caminha;Aeroporto;Londrina;Região Geográfica Imediata de Londrina;Região Geográfica Intermediária de Londrina;Paraná;Região Sul;86038-560;Brasil;br
SBLS;Base Aérea de Lagoa Santa / PAMALS;-19.6614;-43.8964;g;METAR SBLS 122100Z 14008KT 9999 FEW043 21/15 Q1018=;Aeroporto;Rua Ludmila de Abreu;Recanto da Lagoa;Lagoa Santa;Região Geográfica Imediata de Belo Horizonte;Região Metropolitana de Belo Horizonte;Região Geográfica Intermediária de Belo Horizonte;Minas Gerais;Região Sudeste;33400000;Brasil;br
SBMA;Aeroporto João Correa da Rocha;-5.36833;-49.1378;g;METAR SBMA 122100Z 36003KT CAVOK 28/25 Q1011=;Aeroporto João Correa da Rocha;Avenida Nagib Mutran;Cidade Nova;Marabá;Marabá;Região Geográfica Imediata de Marabá;Região Geográfica Intermediária de Marabá;Pará;Região Norte;68501-660;Brasil;br
SBME;Aeroporto de Macaé;-22.3425;-41.7656;g;METAR SBME 122100Z 26002KT 9999 SCT040 20/17 Q1017=;Aeroporto de Macaé;Rua Hildebrando Alves Barbosa;Macaé;Região Geográfica Imediata de Macaé-Rio das Ostras;Região Geográfica Intermediária de Macaé-Rio das Ostras-Cabo Frio;Rio de Janeiro;Região Sudeste;27963-840;Brasil;br
SBMG;Aeroporto Regional de Maringá / Silvio Name Junior;-23.47944444;-52.0122222;g;METAR SBMG 122100Z 17003KT CAVOK 18/10 Q1018=;Aeroporto Regional de Maringá Silvio Name Júnior;Avenida Vladimir Babkov;Parque Industrial Sul;Maringá;Região Geográfica Imediata de Maringá;Região Geográfica Intermediária de Maringá;Paraná;Região Sul;87065-167;Brasil;br
SBMI;Aeroporto de Maricá;-22.9181;-42.8289;g;METAR SBMI 122100Z /////KT 9999 FEW030 ///// Q1018=;Aeroporto de Maricá;Rua Celestino Gomes Dos Santos;Centro;Maricá;Região Geográfica Imediata do Rio de Janeiro;Região Metropolitana do Rio de Janeiro;Região Geográfica Intermediária do Rio de Janeiro;Rio de Janeiro;Região Sudeste;24900;Brasil;br
SBMK;Aeroporto de Monte Claros / Mário Ribeiro;-16.7067;-43.8189;g;METAR SBMK 122100Z 26003KT CAVOK 25/14 Q1015=;Aeroporto de Montes Claros - Mário Ribeiro;Rua José Bonifácio;Independência;Montes Claros;Região Geográfica Imediata de Montes Claros;Região Geográfica Intermediária de Montes Claros;Minas Gerais;Região Sudeste;39401443;Brasil;br
SBMM;Plataforma P-20;-22.3569;-40.0906;y;SPECI SBMM 122100Z AUTO 21018KT 2800 NCD 23/13 Q1017 W///S4=;P-20
SBMN;Aeroporto de Ponta Pelada;-3.14556;-59.9861;g;METAR SBMN 122100Z 09002KT 9999 SCT020 FEW025TCU 30/24 Q1009=;ALA 8 (Base Aérea de Manaus);Rua Desembargador Felismino Soares;Vila Buriti;Manaus;Manaus;Região Geográfica Imediata de Manaus;Região Geográfica Intermediária de Manaus;Amazonas;Região Norte;69000-000;Brasil;br
SBMO;Aeroporto Internacional Zumbi dos Palmares;-9.51028;-35.7933;g;METAR SBMO 122100Z 16005KT CAVOK 25/20 Q1014=;Aeroporto Internacional Zumbi dos Palmares;Avenida Presidente Fernando Affonso Collor de Melo;Rio Largo;Rio Largo;Região Geográfica Imediata de Maceió;Região Geográfica Intermediária de Maceió;Alagoas;Região Nordeste;57100000;Brasil;br
SBMQ;Aeroporto Internacional de Macapá;0.0505556;-51.0719;g;METAR SBMQ 122100Z 05004KT 9999 FEW018 SCT100 28/25 Q1010=;Aeroporto Internacional de Macapá - Alberto Alcolumbre;Avenida Isabel;Ressaca Pacoval;Jesus de Nazaré;Macapá;Macapá;Microrregião de Macapá;Região Geográfica Intermediária de Macapá;Amapá;Região Norte;68908180;Brasil;br
SBMT;Aeroporto Campo de Marte;-23.5089;-46.6375;g;METAR SBMT 122100Z 13007KT 9999 FEW049 16/11 Q1020=;Aeroporto Campo de Marte;Rua do Aclamado;Jardim São Bento;São Paulo;Região Imediata de São Paulo;Região Metropolitana de São Paulo;Região Geográfica Intermediária de São Paulo;São Paulo;Região Sudeste;02524-020;Brasil;br
SBNF;Aeroporto Internacional de Navegantes - Ministro Victor Konder;-26.88;-48.6514;g;METAR SBNF 122100Z 11004KT CAVOK 18/13 Q1019=;Aeroporto Internacional de Navegantes Ministro Victor Konder;1297;Rua Osmar Gaya;Loteamento Vila Esperança;Meia Praia;Navegantes;Região Geográfica Imediata de Itajaí;Região Geográfica Intermediária de Blumenau;Santa Catarina;88375-000;Brasil;br
SBNM;Santo Ângelo;-28.2822;-54.1689;g;METAR SBNM 122100Z AUTO 20002KT CAVOK 16/08 Q1021=;Aeroporto Regional Sepé Tiaraju;s/n;Táxi;Santa Bárbara;Rincão dos Meotti;Santo Ângelo;Região Geográfica Imediata de Santo Ângelo;Região Geográfica Intermediária de Ijui;Rio Grande do Sul;Região Sul;Brasil;br
SBNT;Aeroporto Internacional Augusto Severo;-5.91111;-35.2478;g;METAR SBNT 122100Z 13011KT CAVOK 27/22 Q1011=;Aeroporto Internacional Augusto Severo;Rua Felizardo Moura;Jardim Planalto;Parnamirim;Parnamirim;Região Geográfica Imediata de Natal;Região Geográfica Intermediária de Natal;Rio Grande do Norte;Região Nordeste;59140-290;Brasil;br
SBNV;AERÓDROMO NACIONAL DE AVIAÇÃO ( SBNV );-16.6256;-49.3494;g;METAR SBNV 122100Z 20006KT 9999 FEW030 24/15 Q1017=;Aeródromo Nacional de Aviação;Rua CC-4;Residencial Carla Cristina;Goiânia;Região Geográfica Imediata de Goiânia;Região Geográfica Intermediária de Goiânia;Goiás;Região Centro-Oeste;74470-534;Brasil;br
SBPA;Aeroporto Internacional Salgado Filho;-29.9942;-51.1714;g;METAR SBPA 122100Z 29004KT 270V330 CAVOK 15/08 Q1019=;Aeroporto Internacional de Porto Alegre;Avenida Severo Dullius;Porto Alegre;Porto Alegre;Região Geográfica Imediata de Porto Alegre;Região Metropolitana de Porto Alegre;Região Geográfica Intermediária de Porto Alegre;Rio Grande do Sul;Região Sul;90200-310;Brasil;br
SBPJ;Aeroporto de Palmas – Brigadeiro Lysias Rodrigues;-10.2953;-48.3578;g;METAR SBPJ 122100Z 00000KT CAVOK 30/20 Q1011=;Aeroporto de Palmas – Brigadeiro Lysias Rodrigues;Alameda Cajueiro;QD 11;Palmas;Região Geográfica Imediata de Palmas;Região Geográfica Intermediária de Palmas;Tocantins;Região Norte;77019-900;Brasil;br
SBPK;Aeroporto de Pelotas;-31.7183;-52.3275;g;METAR SBPK 122100Z 32002KT CAVOK 18/10 Q1018=;Aeroporto Internacional João Simões Lopes Neto;Rua Professora Maria Belmira;Areal;Sede;Pelotas;Região Geográfica Imediata de Pelotas;Aglomeração Urbana do Sul;Região Geográfica Intermediária de Pelotas;Rio Grande do Sul;Região Sul;96080-000;Brasil;br
SBPL;Aeroporto de Petrolina;-9.36389;-40.5639;g;METAR SBPL 122100Z 16008KT 9999 FEW033 31/15 Q1012=;Curral Queimado;Petrolina;Região Geográfica Imediata de Petrolina;Região Administrativa Integrada de Desenvolvimento do Polo Petrolina e Juazeiro;Região Geográfica Intermediária de Petrolina;Pernambuco;Região Nordeste;56316-827;Brasil;br
SBPP;Aeroporto Internacional de Ponta Porã;-22.5494;-55.7025;g;METAR SBPP 122100Z 08004KT CAVOK 18/08 Q1020=;Aeroporto Internacional de Ponta Porã;Rua Aeroporto Santos Dumont;Jardim Aeroporto;Ponta Porã;Microrregião de Dourados;Região Geográfica Intermediária de Dourados;Mato Grosso do Sul;Região Centro-Oeste;79904-402;Brasil;br
SBPS;Aeroporto de Porto Seguro;-16.4386;-39.0808;g;METAR SBPS 122100Z 18007KT 110V230 9000 VCSH SCT020 FEW025TCU BKN090 24/21 Q1015=;Aeroporto de Porto Seguro;Rua Tiradentes;Centro Histórico;Porto Seguro;Porto Seguro;Microrregião de Porto Seguro;Região Geográfica Intermediária de Ilhéus-Itabuna;Bahia;Região Nordeste;45810000;Brasil;br
SBPV;Aeroporto Internacional de Porto Velho — Governador Jorge Teixeira de Oliveira;-8.70917;-63.9022;g;METAR SBPV 122100Z 20002KT 9999 SCT016 BKN021 OVC027 24/21 Q1012=;Aeroporto Internacional de Porto Velho - Governador Jorge Teixeira de Oliveira;Rua do Canil;Nacional;Porto Velho;Porto Velho;Microrregião Porto Velho;Região Geográfica Intermediária de Porto Velho;Rondônia;Região Norte;76803260;Brasil;br
SBRB;Aeroporto Internacional de Rio Branco - Plácido de Castro;-9.86889;-67.8936;g;METAR SBRB 122100Z 12003KT 050V170 9999 BKN025 24/20 Q1014=;06-24;BR-364;Rio Branco;Rio Branco;Região Geográfica Imediata de Rio Branco;Região Geográfica Intermediária de Rio Branco;Acre;Região Norte;69919799;Brasil;br
SBRF;Aeroporto Internacional do Recife/Guararapes - Gilberto Freyre;-8.12639;-34.9233;g;METAR SBRF 122100Z 16011KT 9999 FEW021 25/20 Q1012=;Aeroporto Internacional do Recife/Guararapes - Gilberto Freyre;Rua Rio Jordão;Ipsep;Recife;Recife;Região Geográfica Imediata do Recife;Região Metropolitana do Recife;Pernambuco;Região Nordeste;51190-460;Brasil;br
SBRJ;Aeroporto Santos Dumont;-22.9103;-43.1631;g;METAR SBRJ 122100Z 18009KT 9999 FEW025 SCT040 21/16 Q1017=;Aeroporto Santos Dumont;Praça Senador Salgado Filho;Castelo;Centro;Zona Central do Rio de Janeiro;Rio de Janeiro;Região Geográfica Imediata do Rio de Janeiro;Região Metropolitana do Rio de Janeiro;Região Geográfica Intermediária do Rio de Janeiro;Rio de Janeiro;Região Sudeste;20021-340;Brasil;br
SBRP;Aeroporto de Ribeirão Preto / Dr. Leite Lopes;-21.1342;-47.7742;g;METAR SBRP 122100Z 16003KT CAVOK 21/11 Q1018=;Aeroporto Doutor Leite Lopes de Ribeirão Preto;Rua Petrópolis;Quintino 1;Ribeirão Preto;Ribeirão Preto;Região Imediata de Ribeirão Preto;Região Metropolitana de Ribeirão Preto;Região Geográfica Intermediária de Ribeirão Preto;São Paulo;Região Sudeste;14075-680;Brasil;br
SBSC;Base Aérea de Santa Cruz / BASC;-22.9322;-43.7189;g;METAR SBSC 122100Z 18003KT 9999 FEW018 19/15 Q1018=;Santa Cruz;Zona Oeste do Rio de Janeiro;Rio de Janeiro;Região Geográfica Imediata do Rio de Janeiro;Região Metropolitana do Rio de Janeiro;Região Geográfica Intermediária do Rio de Janeiro;Rio de Janeiro;Região Sudeste;23550-040;Brasil;br
SBSG;Aeroporto Internacional de Natal — Governador Aluízio Alves;-5.77;-35.37;g;METAR SBSG 122100Z 17008KT 140V200 9999 FEW020 26/23 Q1012=;Avenida Doutor Ruy Pereira dos Santos;Maçaranduba;São Gonçalo do Amarante;São Gonçalo do Amarante;Região Geográfica Imediata de Natal;Região Geográfica Intermediária de Natal;Rio Grande do Norte;Região Nordeste;59291-625;Brasil;br
SBSJ;Aeroporto de São José dos Campos - Professor Urbano Ernesto Stumpf;-23.2292;-45.8614;g;METAR SBSJ 122100Z 16007KT 9999 SCT025 17/11 Q1020=;F-60;Avenida Doutor Amin Simão;Embraer S.A.;Jardim Uirá;São José dos Campos;São José dos Campos;Região Imediata de São José dos Campos;Região Metropolitana do Vale do Paraíba e Litoral Norte;Região Geográfica Intermediária de São José dos Campos;São Paulo;Região Sudeste;12227-000;Brasil;br
SBSL;Aeroporto Internacional Marechal Hugo da Cunha Machado;-2.58861;-44.2364;y;METAR SBSL 122100Z 12011KT 3000 TSRA BKN008 BKN018 FEW025CB 25/22 Q1013=;Aeroporto Internacional Marechal Cunha Machado;Rua Dezessete;Vila Real;São Raimundo;São Luís;Região Geográfica Imediata de São Luís;Região Geográfica Intermediária de São Luís;Maranhão;Região Nordeste;65058313;Brasil;br
SBSM;Aeroporto de Santa Maria ;-29.7111;-53.6881;g;METAR SBSM 122100Z 30002KT CAVOK 14/12 Q1020=;Aeroporto de Santa Maria;Caminho das Pitangueiras;Camobi;Santa Maria;Região Geográfica Imediata de Santa Maria;Região Geográfica Intermediária de Santa Maria;Rio Grande do Sul;Região Sul;97105-900;Brasil;br
SBSN;Aeroporto Internacional de Santarém — Maestro Wilson Fonseca;-2.4225;-54.7928;g;METAR SBSN 122100Z 19005KT 9999 SCT020 27/25 Q1010 RETS=;Brigada de Incêndio - Aeroporto;Avenida Engenheiro Fernando Guilhon;Santarém;Santarém;Microrregião de Santarém;Região Geográfica Intermediária de Santarém;Pará;Região Norte;68035090;Brasil;br
SBSP;Aeroporto de Congonhas / São Paulo;-23.6267;-46.6553;y;METAR SBSP 122100Z 18011KT 9999 BKN013 16/13 Q1022=;Aeroporto Deputado Freitas Nobre;Rua Antônio Salso;Mirandópolis;Saúde;São Paulo;Região Imediata de São Paulo;Região Metropolitana de São Paulo;Região Geográfica Intermediária de São Paulo;São Paulo;Região Sudeste;04068-021;Brasil;br
SBSR;Aeroporto Estadual Prof. Eribelto Manoel Reino;-20.8164;-49.4064;g;METAR SBSR 122100Z 20005KT CAVOK 22/11 Q1018=;Aeroporto Estadual Professor Eribelto Manoel Reino;3505;Avenida dos Estudantes;Jardim Novo Aeroporto;São José do Rio Preto;São José do Rio Preto;Região Imediata de São José do Rio Preto;Região Geográfica Intermediária de São José do Rio Preto;São Paulo;Região Sudeste;15025-355;Brasil;br
SBST;Base Aérea de Santos / BAST;-23.925;-46.2875;g;METAR SBST 122100Z 25005KT 220V290 5000 HZ FEW019 BKN043 21/17 Q1019=;Jardim Progresso;Vicente de Carvalho;Guarujá;Região Imediata de Santos;Região Metropolitana da Baixada Santista;Região Geográfica Intermediária de São Paulo;São Paulo;Região Sudeste;11450170;Brasil;br
SBSV;Aeroporto Internacional de Salvador — Deputado Luís Eduardo Magalhães;-12.9108;-38.3308;g;METAR SBSV 122100Z 11005KT 9999 FEW023 26/21 Q1013=;Aeroporto Internacional Deputado Luiz Eduardo Magalhães;Avenida Tenente Frederico Gustavo dos Santos;São Cristovão;Salvador;Salvador;Região Geográfica Imediata de Salvador;Região Metropolitana de Salvador;Região Geográfica Intermediária de Salvador;Bahia;Região Nordeste;41510-000;Brasil;br
SBTE;Aeroporto Senador Petrônio Portella;-5.05972;-42.8233;g;METAR SBTE 122100Z 33004KT 9999 FEW030 SCT090 29/22 Q1010=;Aeroporto de Teresina - Senador Petrônio Portella;Rua Waldemar Gravieer;Aeroporto;Teresina;Região Geográfica Imediata de Teresina;Região Integrada de Desenvolvimento da Grande Teresina;Região Geográfica Intermediária de Teresina;Piauí;Região Nordeste;64003600;Brasil;br
SBTF;Aeroporto de Tefé;-3.38278;-64.7239;g;METAR SBTF 122100Z 18006KT 9999 FEW020 FEW025TCU SCT090 29/24 Q1010=;Aeroporto de Tefé;Rua Cruzeiro do Sul;Tefé;Tefé;Microrregião de Tefé;Região Geográfica Intermediária de Tefé;Amazonas;Região Norte;69470-000;Brasil;br
SBTK;Aeroporto Municipal de Tarauacá - José Galera dos Santos;-8.155;-70.7831;g;METAR SBTK 122100Z AUTO 17005KT 9999 OVC020 23/20 Q1014=;Aeroporto Municipal de Tarauacá José Galera dos Santos;Rua Epaminondas Jacome;Copacabana;Tarauacá;Tarauacá;Microrregião de Tarauacá;Região Geográfica Intermediária de Cruzeiro do Sul;Acre;Região Norte;Brasil;br
SBTT;Aeroporto Internacional de Tabatinga;-4.25556;-69.9356;g;METAR SBTT 122100Z 16007KT 9999 SCT020 26/23 Q1011=;Aeroporto Internacional de Tabatinga;Extrema;Tabatinga;Tabatinga;Microrregião do Alto Solimões;Região Geográfica Intermediária de Tefé;Amazonas;Região Norte;69640–000;Brasil;br
SBTV;Aeroporto Terravista;-16.5408;-39.1078;g;METAR SBTV 122100Z 22007KT 9999 SCT025 BKN090 25/22 Q1015=;Arraial D'Ajuda;Porto Seguro;Microrregião de Porto Seguro;Região Geográfica Intermediária de Ilhéus-Itabuna;Bahia;Região Nordeste;45816000;Brasil;br
SBUG;Aeroporto Internacional de Uruguaiana/Rubem Berta;-29.7819;-57.0381;g;METAR SBUG 122100Z 01004KT CAVOK 18/13 Q1019=;Aeroporto Internacional Rubem Berta;Rodovia Osvaldo Aranha;Distrito Rodoviário;Uruguaiana;Uruguaiana;Região Geográfica Imediata de Uruguaiana;Região Geográfica Intermediária de Uruguaiana;Rio Grande do Sul;Região Sul;97500-300;Brasil;br
SBUL;Aeroporto de Uberlândia/Aeroporto Ten. Cel. Av. César Bombonato;-18.8828;-48.2256;g;METAR SBUL 122100Z 18007KT 9999 SCT045 20/12 Q1019=;Aeroporto de Uberlândia - Tenente Coronel Aviador César Bombonato;Rua Terracota;Grand Ville;Setor Leste;Uberlândia;Região Geográfica Imediata de Uberlândia;Região Geográfica Intermediária de Uberlândia;Minas Gerais;Região Sudeste;38406-226;Brasil;br
SBUR;Aeroporto de Uberaba / Mário de Almeida Franco;-19.765;-47.9647;g;METAR SBUR 122100Z 23004KT CAVOK 21/14 Q1019=;17/35;Avenida Nenê Sabino;Santos Dumont;Uberaba;Região Geográfica Imediata de Uberaba;Região Geográfica Intermediária de Uberaba;Minas Gerais;Região Sudeste;38020-433;Brasil;br
SBUY;Aeroporto de Porto Urucu;-4.88333;-65.3564;g;METAR SBUY 122100Z 16002KT 9999 SCT020 28/23 Q1009=;Aeroporto Urucu;Coari;Coari;Região Geográfica Imediata de Coari;Região Geográfica Intermediária de Manaus;Amazonas;Região Norte;69460-000;Brasil;br
SBVH;Aeroporto de Vilhena / Brigadeiro Camarão;-12.6942;-60.0981;g;METAR SBVH 122100Z 07005KT CAVOK 24/18 Q1015=;Aeroporto Brigadeiro Camarão;BR-174;Vilhena;Vilhena;Microrregião Vilhena;Região Geográfica Intermediária de Ji-Paraná;Rondônia;Região Norte;76980000;Brasil;br
SBVT;Aeroporto de Vitória - Eurico de Aguiar Salles;-20.2556;-40.2889;g;METAR SBVT 122100Z 26003KT 9999 SCT025 SCT100 21/18 Q1017=;3800;Avenida Fernando Ferrari;Aeroporto;Região Administrativa VI - Continental;Vitória;Região Geográfica Imediata de Vitória;Região Metropolitana da Grande Vitória;Região Geográfica Intermediária de Vitória;Espírito Santo;Região Sudeste;29070267;Brasil;br
SBYS;Academia da Força Aérea;-21.9853;-47.3381;g;METAR SBYS 122100Z 23004KT CAVOK 19/13 Q1019=;Pirassununga;Pirassununga;Região Imediata de São Carlos;Região Geográfica Intermediária de Araraquara;São Paulo;Região Sudeste;Brasil;br
SCAR;CHACALLUTA;-18.3483;-70.3386;g;METAR SCAR 122100Z 22007KT CAVOK 17/12 Q1013=;Aeropuerto Chacalluta;Aeropuerto Chacalluta;Arica;Provincia de Arica;Región de Arica y Parinacota;Chile;cl
SCBA;BALMACEDA;-45.9158;-71.6892;g;METAR SCBA 122100Z 31019KT 9999 FEW040 04/M01 Q1007=;Aeropuerto Balmaceda;Al Cementerio;Balmaceda;Coyhaique;Provincia de Coyhaique;Región Aysén del General Carlos Ibáñez del Campo;Chile;cl
SCCF;EL LOA;-22.4986;-68.9042;g;METAR SCCF 122100Z AUTO 26015KT CAVOK 21/M23 Q1025=;Servicio de Salvamento y Extinción de Incendios en Aeronaves;Aeropuerto El Loa;Calama;Provincia de El Loa;Región de Antofagasta;1395584;Chile;cl
SCCH;GENERAL BERNARDO O HIGGINS;-36.5828;-72.0317;g;METAR SCCH 122100Z 25005KT CAVOK 15/14 Q1014=;Aeródromo Bernardo O'Higgins;Chillán (Cruce Avenida Ecuador / Avenida Argentina) - Cruce N-447 (Coihueco, Plaza de Armas);Jardín del Este;Camino a Coihueco;Chillán;Provincia de Diguillín;Región de Ñuble;3800381;Chile;cl
SCCI;CARLOS IBANEZ DEL CAMPO INTERNATIONAL;-53.0028;-70.8547;g;METAR SCCI 122100Z 27022KT 9999 FEW030 05/01 Q0995 NOSIG=;VOR;Acceso aeronaval;Punta Arenas;Provincia de Magallanes;Región de Magallanes y de la Antártica Chilena;Chile;cl
SCCY;TENIENTE VIDAL;-45.5942;-72.1061;g;METAR SCCY 122100Z 05005KT 9999 SCT040 05/00 Q1010=;Aeródromo Teniente Vidal;Cruce X-600 (El Claro) - Lago Atravesado - Lago Portales;El Embrujo;Coyhaique;Provincia de Coyhaique;Región Aysén del General Carlos Ibáñez del Campo;5952014;Chile;cl
SCDA;DIEGO ARACENA INTERNATIONAL;-20.535;-70.1811;g;METAR SCDA 122100Z 28005KT 250V310 9999 FEW031 18/11 Q1014=;Aeropuerto Diego Aracena;1;Iquique;Provincia de Iquique;Región de Tarapacá;Chile;cl
SCEL;ARTURO MERINO BENITEZ INTERNATIONAL;-33.3928;-70.7856;g;METAR SCEL 122100Z 17010KT CAVOK 23/M01 Q1013 NOSIG=;17L/35R;Camino a Lampa;Pudahuel;Provincia de Santiago;Región Metropolitana de Santiago;9020000;Chile;cl
SCFA;CERRO MORENO INTERNATIONAL;-23.4444;-70.445;g;METAR SCFA 122100Z 20007KT 9999 FEW030 15/10 Q1014 NOSIG=;Cerro Moreno;Antofagasta;Provincia de Antofagasta;Región de Antofagasta;Chile;cl
SCGE;MARIA DOLORES;-37.4017;-72.4256;r;METAR SCGE 122100Z 32005KT 3000 HZ OVC005 12/11 Q1015=;Aeródromo María Dolores;Cruce Q-200 - Aeródromo María Dolores;María Dolores;Los Ángeles;Provincia de Bío-Bío;Región del Biobío;Chile;cl
SCIC;GENERAL FREIRE;-34.9669;-71.2169;g;METAR SCIC 122100Z 19004KT CAVOK 17/11 Q1013=;Aeródromo General Freire;Calle El Pimiento;Las Brisas del Boldo;Curicó;Provincia de Curicó;Región del Maule;340001;Chile;cl
SCIE;CARRIEL SUR INTERNATIONAL;-36.7725;-73.0631;r;METAR SCIE 122100Z 21004KT 7000 BKN005 OVC009 13/12 Q1015=;Aeropuerto Internacional Carriel Sur;Ramón Carrasco;Lomas de San Andrés;Concepción;Provincia de Concepción;Región del Biobío;4300525;Chile;cl
SCIP;MATAVERI INTERNATIONAL;-27.1647;-109.422;g;METAR SCIP 122100Z 12018KT 9999 FEW020 BKN040 20/12 Q1025 NOSIG=;Aeropuerto Internacional Mataveri;Manukena;Apina-Nui;Mataveri;Haŋa Roa;Provincia de Isla de Pascua;Región de Valparaíso;2770000;Chile;cl
SCJO;CANAL BAJO CARLOS HOTT SIEBERT;-40.6114;-73.0603;y;METAR SCJO 122100Z VRB02KT 3000 RA BKN007 OVC020 09/09 Q1011=;Aeródromo Cañal Bajo - Carlos Hott Siebert;Guillermo Hollstein;Osorno;Provincia de Osorno;Región de Los Lagos;5290000;Chile;cl
SCSE;LA FLORIDA;-29.9164;-71.1911;g;METAR SCSE 122100Z 26004KT 9999 SCT016 13/09 Q1015=;La Serena;Provincia de Elqui;Región de Coquimbo;1732400;Chile;cl
SCTE;EL TEPUAL INTERNATIONAL;-41.4386;-73.0939;g;METAR SCTE 122100Z 20006KT 9999 -RA OVC040 08/07 Q1011 NOSIG=;Aeropuerto El Tepual;Aeropuerto El Tepual;El Tepual;Puerto Montt;Provincia de Llanquihue;Región de Los Lagos;Chile;cl
SCTN;CHAITEN;-42.9331;-72.6992;g;METAR SCTN 122100Z AUTO 00000KT 9999 FEW043 08/08 Q1012=;Chaitén;Provincia de Palena;Región de Los Lagos;5850000;Chile;cl
SCVD;PICHOY;-39.6497;-73.0861;y;METAR SCVD 122100Z 03006KT 3500 RA OVC011 13/13 Q1012=;Aeropuerto Pichoy;Cruce Ruta 5 (Mariquina) - Cruce Ruta 206 (Valdivia);Fundo San Miguel;Mariquina;Provincia de Valdivia;Región de Los Ríos;Chile;cl
SDIY;João Durval Carneiro;-12.20055556;-38.90055556;g;METAR SDIY 122100Z AUTO 15004KT CAVOK 25/22 Q1014=;Mangabeira;Jaíba;Feira de Santana;Região Geográfica Imediata de Feira de Santana;Região Metropolitana de Feira de Santana;Região Geográfica Intermediária de Feira de Santana;Bahia;Região Nordeste;44071-870;Brasil;br
SECO;FRANCISCO DE ORELLANA;-0.462778;-76.9864;g;METAR SECO 122100Z 10004KT 9999 FEW020 BKN100 29/23 Q1010 RMK A2983=;Alejandro Labaka;Puerto Francisco de Orellana;Francisco de Orellana;Orellana;220205;Ecuador;ec
SECU;MARISCAL LAMAR;-2.88944;-78.9842;g;METAR SECU 122100Z 05008KT 9999 FEW040 22/08 Q1023=;Aeropuerto Mariscal Lamar;Illimani;Totoracocha;Cuenca;Cuenca;Azuay;010113;Ecuador;ec
SEGU;SIMON BOLIVAR INTERNATIONAL;-2.15778;-79.8839;g;METAR SEGU 122100Z 16006KT 9999 FEW023 29/22 Q1008 NOSIG RMK A2977=;Aeropuerto Internacional José Joaquín de Olmedo;Avenida de las Américas;Ciudadela Adace;Guayaquil;Guayaquil;Guayaquil;EC090513;Ecuador;ec
SELT;COTOPAXI INTERNATIONAL;-0.906667;-78.6156;g;METAR SELT 122100Z 18014KT 9999 SCT030 18/09 Q1026=;Aeropuerto Internacional Cotopaxi;Quijando y Ordoñez;Quiroz;Latacunga;Latacunga;Cotopaxi;050104;Ecuador;ec
SEMC;MACAS;-2.29917;-78.1206;g;METAR SEMC 122100Z 06005KT 9999 VCSH SCT026TCU BKN200 25/17 Q1014 RMK A2995=;Macas Airport;Guamote;Macas;Morona;Morona Santiago;140141;Ecuador;ec
SEMT;ELOY ALFARO INTERNATIONAL;-0.945556;-80.6781;g;METAR SEMT 122100Z 20011KT 9999 OVC020 26/22 Q1010 RMK A2983=;Aeropuerto Internacional General Eloy Alfaro Delgado;Ingreso al Aeropuerto;Manta;Manta;Manabí;130208;Ecuador;ec
SERO;VICTOR LARREA;-3.43528;-79.9778;g;METAR SERO 122100Z 30008KT 9999 FEW010 BKN026 27/21 Q1009=;Santa Rosa;Santa Rosa;El Oro;070602;Ecuador;ec
SESA;GENERAL ULPIANO PAEZ;-2.20472;-80.9886;g;METAR SESA 122100Z 24008KT 9999 SCT010 24/20 Q1010 RMK A2984=;Milagro;Salinas;Salinas;Santa Elena;EC241550;Ecuador;ec
SEST;SAN CRISTOBAL;-0.909722;-89.6158;g;METAR SEST 122100Z 18012KT 9999 BKN020 25/19 Q1009 RMK A2981=;Aeropuerto de San Cristóbal;Avenida Alsacio Northia;Puerto Baquerizo Moreno;Parroquia Puerto Baquerizo Moreno;Cantón San Cristóbal;Galápagos;Ecuador;ec
SGAS;SILVIO PETTIROSSI INTERNATIONAL;-25.2397;-57.5189;g;METAR SGAS 122100Z 00000KT CAVOK 21/12 Q1019=;Aeropuerto Internacional Silvio Pettirossi;Ernesto Guevara;Loma Merlo;Luque;Central;Región Oriental;2060;Paraguay;py
SKBO;ELDORADO INTERNATIONAL;4.70139;-74.1469;g;METAR SKBO 122100Z 24011KT 190V260 9999 SCT023TCU SCT200 19/13 Q1023 TEMPO FM2130 TSRA RMK TCU NW/NE A3023=;Aeropuerto Internacional El Dorado;Calle 23G;Versalles;UPZ Fontibón;Localidad Fontibón;Bogotá;Bogotá Distrito Capital;Región Andina;110911;Colombia;co
SKBQ;ERNESTO CORTISSOZ;10.8894;-74.7806;g;METAR SKBQ 122100Z 08010KT 9999 VCSH SCT015 SCT070 29/25 Q1008 NOSIG RMK VCSH/S A2979=;Aeropuerto Internacional Ernesto Cortissoz;Calle 53;Martha Gisella;Soledad;Soledad;Atlántico;Caribe;083010;Colombia;co
SKCC;CAMILO DAZA;7.9275;-72.5114;g;METAR SKCC 122100Z 16018KT 9999 SCT020TCU SCT080 29/18 Q1010 RMK TCU/NE A2984=;Aeropueto Internacional Camilo Daza;Avenida 2;La Laguna;Cúcuta;Oriental;Norte de Santander;Región Andina;540013;Colombia;co
SKCG;RAFAEL NUNEZ;10.4422;-75.5128;g;METAR SKCG 122100Z 27007KT 260V350 7000 VCSH SCT015CB 32/25 Q1007 RMK CB/S A2974=;Rafael Nuñez International Airport;Carrera 30;San Bernardo;Cartagena de Indias;Dique;Bolívar;3110;Colombia;co
SKCL;ALFONSO BONILLA ARAGON INTERNATIONAL;3.54306;-76.3814;g;METAR SKCL 122100Z 30010KT 280V360 9999 FEW023TCU 31/20 Q1011 NOSIG RMK TCU/SW A2986=;Aeropuerto Internacional Alfonso Bonilla Aragón;Vía Aeropuerto;Palmira;Sur;Valle del Cauca;Pacífica;Colombia;co
SKLT;ALFREDO VASQUEZ COBO;-4.19306;-69.9425;g;METAR SKLT 122100Z 17005KT 9999 SCT015 BKN200 26/25 Q1010 RERA RMK A2985=;Aeropuerto Internacional Alfredo Vásquez Cobo;Carrera 8A;Leticia;Leticia;Amazonas;Amazonia;910001;Colombia;co
SKRG;JOSE MARIA CORDOVA;6.16444;-75.4231;g;METAR SKRG 122100Z 21008KT 9000 -TSRA SCT017CB SCT080 18/14 Q1023 NOSIG RMK CB S/N A3022=;José María Córdova;Acceso Vereda Rancheria;Rionegro;Rionegro;Oriente;Antioquia;054040;Colombia;co
SKSP;GUSTAVO ROJAS PINILLA;12.5833;-81.7111;g;METAR SKSP 122100Z 06011KT 050V110 9999 FEW017 31/25 Q1009 RMK A2981=;Aeropuerto Internacional Gustavo Rojas Pinilla;Calle 14;Vista Hermosa;San Andrés;Archipiélago de San Andrés, Providencia y Santa Catalina;880001;Colombia;co
SLCA;CAMIRI;-20.0069;-63.5275;g;METAR SLCA 122100Z 00000KT 9999 NSC 25/09 Q1018=;Camiri Airport;Ingreso a Choreti;Choreti;Camiri;Provincia Cordillera;Santa Cruz;Bolivia;bo
SLCB;JORGE WILSTERMAN;-17.4208;-66.1769;g;METAR SLCB 122100Z 27005KT 9999 FEW036 21/M06 Q1023=;Aeropuerto Internacional Jorge Wilstermann;Avenida Guillermo Killman;Villa Paraíso;Cochabamba;Cercado;Cochabamba;76499135;Bolivia;bo
SLCP;CONCEPCION;-16.1433;-62.0258;g;METAR SLCP 122100Z 00000KT 9999 NSC 23/17 Q1018=;Concepcion;Concepcion;Municipio Concepción;Provincia Ñuflo de Chávez;Santa Cruz;Bolivia;bo
SLJO;SAN JOAQUIN;-13.0528;-64.6617;g;METAR SLJO 122100Z 14004KT 9999 FEW020 BKN200 25/19 Q1013=;San Joaquín del Beni;Canton San Joaquín;Municipio San Joaquin;Provincia de Mamoré;Beni;Bolivia;bo
SLLP;EL ALTO INTERNATIONAL;-16.5131;-68.1922;g;METAR SLLP 122100Z 26006KT 200V340 9999 FEW020 13/M13 Q1036=;Aeropuerto Internacional El Alto;Calle Unidad;Boris Banzer;El Alto;Pedro Domingo Murillo;La Paz;LPZ;Bolivia;bo
SLMG;MAGDALENA;-13.2536;-64.0628;g;METAR SLMG 122100Z 00000KT 9999 SCT017 BKN200 25/19 Q1012=;Canton Magdalena;Magdalena;Provincia de Iténez;Beni;Bolivia;bo
SLRB;ROBORE;-18.3281;-59.7661;g;METAR SLRB 122100Z 00000KT 9999 NSC 25/18 Q1019=;Aeródromo de Roboré;Calle Tarija;Roboré;Chiquitos;Santa Cruz;Bolivia;bo
SLRQ;RURRENABAQUE;-14.4283;-67.5014;g;METAR SLRQ 122100Z 00000KT 9999 FEW020 26/20 Q1014=;Aeropuerto Rurrenabaque;RN16: Rurrenabaque-Ixiamas;Canton Rurrenabaque;Rurrenabaque;General José Ballivián Segurola;Beni;Bolivia;bo
SLRY;REYES;-14.3061;-67.3536;g;METAR SLRY 122100Z 00000KT 9999 NSC 26/18 Q1015=;Aeropuerto de Reyes;Calle Jorge von Boeck;Canton Reyes;Reyes;General José Ballivián Segurola;Beni;Bolivia;bo
SLSA;SANTA ANA DEL YACUMA;-13.7619;-65.435;g;METAR SLSA 122100Z 15005KT 9999 FEW017 BKN200 24/16 Q1015=;Aeropuerto Profesor José Chávez Suárez;Avenida Hugo Suárez Gómez;Canton Santa Ana;Santa Ana del Yacuma;Yacuma;Beni;Bolivia;bo
SLSI;CAP AV JUAN COCHAMANIDIS SAUCEDO;-16.3844;-60.9628;g;METAR SLSI 122100Z 00000KT 9999 NSC 24/17 Q1014=;18-36;Libertad;San Ignacio de Velasco;Barrio Madersbacher;San Ignacio de Velasco;Velasco;Santa Cruz;Bolivia;bo
SLTR;TTE AV JORGE HENRICH ARAUZ;-14.8194;-64.9183;g;METAR SLTR 122100Z 16006KT 9999 NSC 25/16 Q1015=;Aeropuerto Teniente Jorge Henrich Arauz;Avenida Profesor José Chávez Suárez;Canton Trinidad;Trinidad;Provincia de Cercado;Beni;Bolivia;bo
SLVR;VIRU VIRU INTERNATIONAL;-17.6447;-63.1353;g;METAR SLVR 122100Z 17003KT 9999 NSC 24/13 Q1016=;Main Ramp;Aeropuerto Internacional Viru-Viru;Municipio Warnes;Provincia Warnes;Santa Cruz;Bolivia;bo
SMJP;JOHAN A PENGEL INTERNATIONAL;5.45278;-55.1878;g;METAR SMJP 122100Z 05009KT 9000 -SHRA SCT010 SCT015CB BKN020 25/24 Q1012 NOSIG=;Johan Adolf Pengel International Airport;Luchthavenlaan;Zanderij;Para;Suriname;sr
SMZO;ZORG EN HOOP;5.81083;-55.1906;g;METAR SMZO 122100Z 03005KT 5000 SHRA FEW006 SCT010 FEW012CB BKN020 24/23 Q1012 NOSIG=;Zorg en Hoop Airport;Tapoeripastraat;Paramaribo;Distrikt Paramaribo;Paramaribo;00597;Suriname;sr
SNDV;Brigadeiro Antônio Cabral;-20.18194444;-44.87;g;METAR SNDV 122100Z AUTO 19005KT CAVOK 22/13 Q1018=;Aeroporto Brigadeiro Cabral;Avenida Márcio Notini;Jusa Fonseca;Divinópolis;Região Geográfica Imediata de Divinópolis;Região Geográfica Intermediária de Divinópolis;Minas Gerais;Região Sudeste;35500-617;Brasil;br
SNGI;Guanambi;-14.20805556;-42.74611111;g;METAR SNGI 122100Z AUTO 15003KT CAVOK 30/14 Q1014=;Aeroporto Municipal de Guanambi - Isaac Moura Rocha;Avenida Governador Nilo Coelho;São Sebastião;Guanambi;Guanambi;Região Geográfica Imediata de Guanambi;Região Geográfica Intermediária de Guanambi;Bahia;Região Nordeste;46430-000;Brasil;br
SNHS;Aeroporto de Serra Talhada;-8.06139;-38.3286;g;METAR SNHS 122100Z AUTO /////KT ///V/// //// // ///////// ///// Q////=;Aeroporto Santa Magalhães;PR-390;Serra Talhada;Serra Talhada;Região Geográfica Imediata de Serra Talhada;Região Geográfica Intermediária de Serra Talhada;Pernambuco;Região Nordeste;56903-510;Brasil;br
SNTF;Teixeira de Freitas;-17.52444444;-39.66833333;g;METAR SNTF 122100Z AUTO 18005KT 110V200 9999 FEW016 BKN021 22/20 Q1016=;Aeroporto de Teixeira de Freitas - 9 de Maio;BA-290;Teixeira de Freitas;Teixeira de Freitas;Microrregião de Porto Seguro;Região Geográfica Intermediária de Ilhéus-Itabuna;Bahia;Região Nordeste;45998-000;Brasil;br
SNZR;Pedro Rabelo de Souza;-17.24305556;-46.88138889;g;METAR SNZR 122100Z AUTO 21003KT 190V250 CAVOK 24/17 Q1016=;Aeroporto Municipal de Paracatu - Pedro Rabelo de Sousa;Rua das Rosas;Aeroporto;Paracatu;Paracatu;Microrregião Paracatu;Região Geográfica Intermediária de Patos de Minas;Minas Gerais;Região Sudeste;38600084;Brasil;br
SPCL;CAP FAP DAVID AVENZUR RENGIFO;-8.37778;-74.5742;g;METAR SPCL 122100Z 14006KT 9999 SCT025 24/18 Q1014 RMK BIRD HAZARD RWY 02/20 PP000=;Aeropuerto Internacional Capitán FAP David Abenzur Rengifo;El Pescador;Seis de Julio;Las Palmeras;Puerto Callao;Yarinacocha;Coronel Portillo;Ucayali;250105;Perú;pe
SPHI;CAPT JOSE ABELARDO QUINONES GONZALES;-6.78722;-79.8281;g;METAR SPHI 122100Z 18015KT 9999 OVC020 21/16 Q1011 RMK BIRD HAZARD RWY 19/01 PP000=;Aeropuerto Internacional Capitán FAP José Abelardo Quiñones Gonzales;Panamericana Norte;Chiclayo;Chiclayo;Lambayeque;14820;Perú;pe
SPHO;CORONEL FAP ALFREDO MENDIVIL DUARTE;-13.1547;-74.2042;g;METAR COR SPHO 122100Z VRB02KT 9999 FEW040 SCT090 22/03 Q1023 RMK BIRD HAZARD RWY 20/02 PP000=;Coronel FAP Alfredo Mendivil Duarte Airport;Avenida San Luis;Urbanización San José Primera Etapa;Asociación Ficus;Andres Avelino Caceres Dorregaray;Huamanga;Ayacucho;05002;Perú;pe
SPJR;MAJ GEN FAP ARMANDO REVOREDO IGLESIAS;-7.13639;-78.49;g;METAR SPJR 122100Z 18007KT 140V230 9999 SCT023 BKN046 19/10 Q1025 RMK PP012=;My. Gral. FAP. Armando Revoredo Iglesias Airport;Hoyos Rubio;Los Baños del Inca;Cajamarca;Cajamarca;06000;Perú;pe
SPME;PEDRO CANGA;-3.5525;-80.3808;g;METAR SPME 122100Z 30008KT 9999 SCT030 26/20 Q1009 RMK BIRD HAZARD RWY 32/14 PP000=;Aeropuerto de Tumbes;Carretera Panamericana Norte;Papayal;Zarumilla;Tumbes;072;Perú;pe
SPMS;MOISES BENZAQUEN RENGIFO;-5.89389;-76.1183;g;METAR SPMS 122100Z 13008KT 9999 FEW015 SCT100 32/23 Q1012 RMK BIRD HAZARD RWY 09/27 PP000=;Moisés Benzaquen Rengifo Airport;Calle Pastaza;Yurimaguas;Alto Amazonas;Loreto;16501;Perú;pe
SPQT;CORONEL FAP FRANCISCO SECADA VIGNETTA;-3.78472;-73.3086;g;METAR SPQT 122100Z 15003KT 090V180 9999 SCT015 BKN100 26/23 Q1010 NOSIG RMK BIRD HAZARD RWY 06/24 PP000=;Crnl. FAP Francisco Secada Vignetta International Airport;Avenida José Abelardo Quiñones;Santa Clara;San Juan;San Juan Bautista;Maynas;Loreto;Perú;pe
SPQU;RODRIGUEZ BALLON;-16.3408;-71.5831;g;METAR SPQU 122100Z 24008KT 210V270 CAVOK 19/M11 Q1026 NOSIG RMK PP000=;Arequipa Norte;El Salvador;Cerro Colorado;Arequipa;Arequipa;Perú;pe
SPRU;CAPITAN CARLOS MARTINEZ DE PINILLOS;-8.08472;-79.1094;g;METAR SPRU 122100Z 15008KT 7000 OVC015 19/17 Q1012 RMK VIS 5KM QUAD N PP000=;Aeropuerto Internacional Capitán FAP Carlos Martínez de Pinillos;Calle Dean Saavedra;Huanchaquito;Huanchaco;Trujillo;La Libertad;045;Perú;pe
SPSO;PISCO;-13.7447;-76.2203;g;METAR SPSO 122100Z 24004KT 200V270 9999 OVC026 19/14 Q1013 RMK BIRD HAZARD RWY 22/04 PP000=;Capitán FAP Renán Elías Olivera International Airport;Calle San Martin;Eulogia Elias de Natter;San Andrés;Pisco;Ica;11061;Perú;pe
SPST;TARAPOTO;-6.50861;-76.3731;g;METAR SPST 122100Z 11003KT 9999 SCT015 SCT080 25/22 Q1013 RMK BIRD HAZARD RWY 17/35 PP000=;Aeropuerto Cadete FAP Guillermo del Castillo Paredes;Vía de Evitamiento;Tarapoto;San Martín;San Martín;22200;Perú;pe
SPYL;CAPITAN MONTES;-4.57639;-81.2539;g;METAR SPYL 122100Z 18015KT CAVOK 24/18 Q1010 RMK BIRD HAZARD RWY 17/35 PP000=;Aeropuerto Internacional Capitán FAP Víctor Montes Arias;Ingreso al Terminal;Talara;Pariñas;Talara;Departamento de Piura;Perú;pe
SPZO;VELAZCO ASTETE;-13.5356;-71.9386;g;METAR SPZO 122100Z 30012KT 9999 SCT050 19/01 Q1028 NOSIG RMK BIRD HAZARD RWY 28 PP000=;Aeropuerto Alejandro Velasco Astete;Jirón Los Chancas;MOLLECITO;San Sebastián;San Sebastián;Cusco;Cusco;08002;Perú;pe
SUCA;LAGUNA DE LOS PATOS INTERNATIONAL;-34.4564;-57.7706;g;METAR SUCA 122100Z 35007KT CAVOK 18/13 Q1015=;"Aeropuerto Internacional de Colonia ""Laguna de los Patos""";Camino Aeropuerto;Colonia;Uruguay;uy
SULS;CAPITAN CORBETA C A CURBELO INTERNATIONAL;-34.855;-55.0942;g;METAR SULS 122100Z 31002KT CAVOK 17/11 Q1014=;"Aeropuerto Internacional Laguna del Sauce ""Capitán de Corbeta Carlos Curbelo""";Ruta Interbalnearia General Líber Seregni;Maldonado;20004;Uruguay;uy
SUMU;CARRASCO INTERNATIONAL;-34.8378;-56.0303;g;METAR SUMU 122100Z 35004KT CAVOK 17/11 Q1015 NOSIG=;NO ENTRY;Segunda Paralela Pando;Paso Carrasco;Aeropuerto Internacional de Carrasco;Municipio de Paso Carrasco;Canelones;15000;Uruguay;uy
SUSO;NUEVA HESPERIDES INTERNATIONAL;-31.4397;-57.9906;g;METAR SUSO 122100Z 04004KT CAVOK 18/14 Q1017=;"Aeropuerto Internacional de Salto ""Nueva Hespérides""";Avenida Mario Apaulazza;Villa Maguey;Salto;5000;Uruguay;uy
SVBM;BARQUISIMETO INTERNATIONAL;10.0425;-69.3583;g;METAR SVBM 122100Z 09004KT 9999 FEW016 28/18 Q1013=;Aeropuerto Internacional Jacinto Lara;Avenida la Salle;Barquisimeto;Parroquia Juan de Villegas;Municipio Iribarren;Lara;Región Centroccidental;3001;Venezuela;ve
SVMI;SIMON BOLIVAR INTERNATIONAL;10.6031;-66.9906;g;METAR SVMI 122100Z 11005KT 9999 FEW016 29/23 Q1013=;Rampa de Carga y Hangares de Aerolineas Nacionales del Aeropuerto de Maiquetía;Av. La Armada;La Aviación;Mare;Parroquia Raul Leoni;Municipio Vargas;La Guaira;1162;Venezuela;ve
SWGN;Araguaína;-7.22833333;-48.24083333;g;METAR SWGN 122100Z AUTO 22003KT CAVOK 30/19 Q1010=;Aeroporto de Araguaína;Avenida Dionisio Farias;Araguaína;Microrregião de Araguaína;Região Geográfica Intermediária de Araguaína;Tocantins;Região Norte;Brasil;br
SWKO;Coari;-4.13388889;-63.13111111;g;METAR SWKO 122100Z AUTO VRB02KT 9999 FEW045 28/25 Q1009=;Aeródromo Coari;Rua do Aeroporto;Vila Nazaré Pinheiro;Coari;Coari;Microrregião de Coari;Região Geográfica Intermediária de Manaus;Amazonas;Região Norte;69460-000;Brasil;br
SWLC;Gen. Leite de Castro;-17.83472222;-50.95611111;g;METAR SWLC 122100Z AUTO 17006KT CAVOK 21/16 Q1017=;Aeroporto General Leite de Castro;Rua 10;Rio Verde;Microrregião Sudoeste de Goiás;Região Geográfica Intermediária de Rio Verde;Goiás;Região Centro-Oeste;75907-210;Brasil;br
SWPI;Parintins;-2.66944444;-56.7711111;g;METAR SWPI 122100Z AUTO 08006KT 050V110 CAVOK 29/24 Q1009=;Aeroporto Júlio Belém;Estrada do Parananema;Parintins;Parintins;Microrregião de Parintins;Região Geográfica Intermediária de Parintins;Amazonas;Região Norte;69152470;Brasil;br
